{
  "norad_id": 60267,
  "name": "STARLINK-32158",
  "history": [
    {
      "epoch": "2026-03-28T21:51:16.331616Z",
      "apogee_km": 476.2365880878906,
      "perigee_km": 474.2367736478136,
      "latitude_deg": 2.615945466526209e-05,
      "longitude_deg": 168.84990123408326,
      "height_km": 476.08080871445014,
      "semi_major_axis_km": 6853.373680867852,
      "eccentricity": 0.0001459,
      "inclination_deg": 53.162,
      "raan_deg": 322.9922,
      "arg_perigee_deg": 86.9101,
      "mean_anomaly_deg": 273.2067,
      "mean_motion_rev_day": 15.30192762
    },
    {
      "epoch": "2026-03-29T00:59:23.167104Z",
      "apogee_km": 476.185435897205,
      "perigee_km": 474.3267956842037,
      "latitude_deg": 1.4521391341480806e-05,
      "longitude_deg": 121.08595194392404,
      "height_km": 476.0979065772393,
      "semi_major_axis_km": 6853.3931157907045,
      "eccentricity": 0.0001356,
      "inclination_deg": 53.1615,
      "raan_deg": 322.3855,
      "arg_perigee_deg": 86.5253,
      "mean_anomaly_deg": 273.5903,
      "mean_motion_rev_day": 15.30186253
    }
  ]
}